District Number,Mincode,Display Name,Mailing Address,Mailing Address Line2,Mailing Address City,Mailing Address Province,Mailing Address PostalCode,Physical Address,Physical Address Line2,Physical Address City,Physical Address Province,Physical Address Postal Code,Role,Contact First Name,Contact Last Name,Contact Phone Extension,Contact Phone Number,Facility Type Code,School Category Code,Phone Number,Fax,Email,Website,Group Classification Primary K-3,Group Classification Elementary 4-7 EU,Group Classification Junior Secondary 8-10 SU,Group Classification Senior Secondary 11-12
035,03535061,Lynn Fripps Elementary,21020 83 AVE,,LANGLEY,BC,V2Y0K8,,,,,,Vice Principal,Jen,Huber,,6048881075,Standard,Public,6048881075,6048881022,,https://lynnfripps.sd35.bc.ca/,,,,
035,03535055,R C Garnett Demonstration Elementary,7096 201 ST,,LANGLEY,BC,V2Y3G7,,,,,,Vice Principal,Christine,Wozney,,6045327814,Standard,Public,6045327814,6045327629,zbako@sd35.bc.ca,,,,,
035,03535056,Langley Fundamental Middle/Secondary Sch,21250 42 AVE,,LANGLEY,BC,V3A8K6,,,,,,Educational Software System Coordinator,Carrie,Stare,,6045344779,Standard,Public,6045344779,6045344795,cclapton@sd35.bc.ca,,,,,
035,03525038,Parkside Centennial AM StrongStart,3300 270 ST,,ALDERGROVE,BC,V4W3H2,,,,,,,Vicki,Kidd,,6048567775,StrongStart Center,Early Learning,6048567775,,dwilk@sd35.bc.ca,,,,,
035,03599168,Langley Online and Distributed Learning,21405A 56 AVE,,LANGLEY,BC,V2Y2N1,,,,,,Principal,Sam,Muraca,,6045347155,Provincial Online Learning,Public,6045347155,6045349332,smuraca@sd35.bc.ca,https://lec.sd35.bc.ca/,,,,
035,03535062,Richard Bulpitt Elementary,20965 77A AVE,,LANGLEY,BC,V2Y2E6,,,,,,Principal,Sean,Oliver,,6048885393,Standard,Public,6048885393,6048885356,,https://richardbulpitt.sd35.bc.ca/,,,,
035,03535054,Topham Elementary,21555 91 AVE,,LANGLEY,BC,V1M3Z3,,,,,,Principal,Vanessa,Jaggi,,,Standard,Public,6048886111,6048829378,vjaggi@sd35.bc.ca,,,,,
035,03525020,West Langley PM StrongStart Centre,9403 212 ST,,LANGLEY,BC,V1M1M1,,,,,,Principal,Courtney,Robertson,,6048886444,StrongStart Center,Early Learning,6048886444,,clambiepottersmith@sd35.bc.ca,,,,,
035,03599173,Choices Program,21405A 56 AVE,,LANGLEY,BC,V2Y2N1,,,,,,,Maria,Thompson,,,Alternate Programs,Public,6045347155,6045349332,smuraca@sd35.bc.ca,,,,,
035,03535009,Belmont Elementary,20390 40 AVE,,LANGLEY,BC,V3A2X1,,,,,,Vice-Principal,Laurel,Costello,,6045333641,Standard,Public,6045333641,6045338694,tbonnar@sd35.bc.ca,,,,,
035,03535015,North Otter Elementary,5370 248 ST,,ALDERGROVE,BC,V4W1A7,,,,,,,Elise,Davenport,,6048563355,Standard,Public,6048563355,6048562054,dwoelders@sd35.bc.ca,,,,,
035,03535017,Glenwood Elementary,20785 24 AVE,,LANGLEY,BC,V2Z2B4,,,,,,,Aurora,Chandler,,6045344644,Standard,Public,6045344644,6045348301,gjanzen@sd35.bc.ca,,,,,
035,03535020,Aldergrove Community Secondary,26850 29 AVE,,ALDERGROVE,BC,V4W3C1,,,,,,,Mehneek,Powell,,6048562521,Standard,Public,6048562521,6048569648,mpalichuk@sd35.bc.ca,,,,,
035,03535016,Willoughby Elementary,20766 80 AVE,,LANGLEY,BC,V2Y1X6,,,,,,Vice Principal,Lara,Gray,,6048886033,Standard,Public,6048886033,6048889598,kmuuren@sd35.bc.ca,https://willoughby.sd35.bc.ca/,,,,
035,03535010,U-Connect,20190 48 AVE,,LANGLEY,BC,V3A3L4,,,,,,Vice Principal,Michelle,Allen,,6045302361,District Online Learning,Public,6045302361,6045309671,rstare@sd35.bc.ca,https://simonds-uconnect.sd35.bc.ca,,,,
035,03535002,Fort Langley Elementary,8877 BARTLETT ST,,FORT LANGLEY,BC,V1M2S6,,,,,,Principal,Logan,Kitteringham,,6078882111,Standard,Public,6048882111,6048887933,lkitteringham@sd35.bc.ca,https://fortlangley.sd35.bc.ca,,,,
035,03535019,Langley Secondary,21405 56 AVE,,LANGLEY,BC,V2Y2N1,,,,,,Principal,Diane,Smillie,,6045344171,Standard,Public,6045344171,6045349518,lssstudentrecords@sd35.bc.ca,https://lss.sd35.bc.ca/,,,,
035,03535026,Peterson Road Elementary,23422 47 AVE,,LANGLEY,BC,V2Z2S3,,,,,,Principal,Christine,Lambie Potter Smith,,6045347904,Standard,Public,6045347904,6045343528,clambiepottersmith@sd35.bc.ca,,,,,
035,03535029,Langley Fine Arts School,9096 TRATTLE ST,,FORT LANGLEY,BC,V1M2S6,,,,,,Principal,Adam,Moore,,6048883113,Standard,Public,6048883113,6048883578,amoore@sd35.bc.ca,,,,,
035,03535032,Parkside Centennial Elementary,3300 270 ST,,ALDERGROVE,BC,V4W3H2,,,,,,,Kaitlyn,Ruth,,6048567775,Standard,Public,6048567775,6048563727,dwilk@sd35.bc.ca,,,,,
035,03535033,Blacklock Fine Arts Elementary,5100 206 ST,,LANGLEY,BC,V3A2E5,,,,,,Principal,Susanna,Eppich,,6045303188,Standard,Public,6045303188,6045309726,seppich@sd35.bc.ca,,,,,
035,03535038,Alice Brown Elementary,20011 44 AVE,,LANGLEY,BC,V3A6L8,,,,,,,Lori,Schultz,,,Standard,Public,6045340744,6045348854,cthygesen@sd35.bc.ca,,,,,
035,03535039,Uplands Elementary,4471 207A ST,,LANGLEY,BC,V3A5V8,,,,,,,Deanna,Halldorson,,,Standard,Public,6045331285,6045329748,ryneufeld@sd35.bc.ca,,,,,
035,03535042,Shortreed Community School,27330 28 AVE,,ALDERGROVE,BC,V4W3K1,,,,,,Administrative Assistant,Kathy,Stoddart,,6048564167,Standard,Public,6048564167,6048567523,cwejr@sd35.bc.ca,,,,,
035,03535043,West Langley Elementary,9403 212 ST,,LANGLEY,BC,V1M1M1,,,,,,,Nicole,Rinke,,,Standard,Public,6048886444,6048828556,crobertson@sd35.bc.ca,,,,,
035,03535045,Douglas Park Community,5409 206 ST,,LANGLEY,BC,V3A2C5,,,,,,Administrative Assistant,Kim,Langford,,6045334491,Standard,Public,6045334491,6045337803,mtouzeau@sd35.bc.ca,,,,,
035,03535047,Alex Hope Elementary,21150 85 AVE,,LANGLEY,BC,V1M2M4,,,,,,Vice Principal,Elise,Rehnby,,6048887109,Standard,Public,6048887109,6048887102,nerker@sd35.bc.ca,,,,,
035,03535023,Coghlan Fundamental Elementary,4452 256TH ST,,ALDERGROVE,BC,V4W1J3,,,,,,Principal,Isabella,Lam,,6048568539,Standard,Public,6048568539,6048564309,ilam@sd35.bc.ca,https://coghlan.sd35.bc.ca,,,,
035,03535044,Noel Booth Elementary,20202 35 AVE,,LANGLEY,BC,V3A0N1,,,,,,Principal,Jason,Malo,,6045309747,Standard,Public,6045309747,6045306481,jmalo@sd35.bc.ca,,,,,
035,03535036,Brookswood Secondary,20902 37A AVE,,LANGLEY,BC,V3A5N2,,,,,,Principal,Lisa,Ellis,,6045302141,Standard,Public,6045302141,6045305132,LEllis@sd35.bc.ca,https://bss.sd35.bc.ca/,,,,
035,03535046,Langley Meadows Elementary,2244 WILLOUGHBY WAY,,LANGLEY,BC,V2Y1C1,,,,,,Administrative Assistant,Candace,Herrod,,6045304101,Standard,Public,6045304101,6045303751,rkrisko@sd35.bc.ca,https://langleymeadows.sd35.bc.ca/,,,,
035,03535037,Nicomekl Elementary,20050 53 AVE,,LANGLEY,BC,V3A3T9,,,,,,Principal,Charlene,Redekop,,6045331468,Standard,Public,6045331468,6045331469,credekop@sd35.bc.ca,https://nicomekl.sd35.bc.ca/,,,,
035,03535024,Wix-Brown Elementary,23851 24 AVE,,LANGLEY,BC,V2Z3A3,,,,,,,Marlene,Dickson,,,Standard,Public,6045345633,6045349531,kfeatherstone@sd35.bc.ca,,,,,
035,03535022,Simonds Elementary,20190 48 AVE,,LANGLEY,BC,V3A3L4,,,,,,Vice Principal,Michelle,Allen,,6045302361,Standard,Public,6045302361,6045309671,rstare@sd35.bc.ca,https://simonds-uconnect.sd35.bc.ca/,,,,
035,03596061,Fraser Valley Adventist Academy,26026 48TH AVE,,ALDERGROVE,BC,V4W1J2,,,,,,,Jean,Septembre,,,Standard,Independent,6046073822,6048561002,principal@fvaa.net,,01,01,01,01
035,03596311,Langley Christian School,22930 48 AVE,,LANGLEY,BC,V2Z2T7,,,,,,,Erin,Wells,,2508613238,Standard,Independent,7788969477,6045330839,headofschool@langleychristian.com,,01,01,01,01
035,03596458,St Catherines School,20244 32 AVE,,LANGLEY,BC,V2Z2E1,,,,,,Principal,Jeff,Brophy,,6045346564,Standard,Independent,6045346564,6045344871,jbrophy@stcatherines.ca,,01,01,,
035,03599050,Langley Education Centre,21405A 56 AVE,,LANGLEY,BC,V2Y2N1,,,,,,,Maria,Thompson,,,Continuing Education,Public,6045347155,,lec-reception@sd35.bc.ca,https://lec.sd35.bc.ca/,,,,
035,03596289,Credo Christian Schools,21846 52 AVE,,LANGLEY,BC,V2Y2M7,,,,,,,Helen,Bulthuis,,6045305396,Standard,Independent,6045305396,6045308965,office@credochs.com,,01,01,01,01
035,03599092,Vanguard,3825 244 ST,,LANGLEY,BC,V2Z2L1,,,,,,Principal,Mike,Palichuk,,6042181153,Alternate Programs,Public,6048569192,6048569328,pthomas@sd35.bc.ca,,,,,
035,03599313,Connections,23752 52 AVE,,LANGLEY,BC,V2Z2P3,,,,,,,Elizabeth,Heyes,,6045302151,Alternate Programs,Public,6045302151,6045305034,dsmillie@sd35.bc.ca,,,,,
035,03535048,Gordon Greenwood Elementary,9175 206 ST,,LANGLEY,BC,V1M2X2,,,,,,Principal,Alan,Joo,,6048820114,Standard,Public,6048820114,6048822617,drossi@sd35.bc.ca,,,,,
035,03535050,Walnut Grove Secondary,8919 WALNUT GROVE DR,,LANGLEY,BC,V1M2N7,,,,,,,Karen,Ethier,,6048820220,Standard,Public,6048820220,6048820557,jlyndon@sd35.bc.ca,,,,,
035,03596631,Whytecliff Agile Learning Centre-Langley,20561 LOGAN AVE,,LANGLEY,BC,V3A7R3,,,,,,Principal,Shelley,Donald,,6045321268,Standard,Independent,6045321268,6045321269,sdonald@walc.ca,,,,01,01
035,03535052,Langley Fundamental Elementary,21789 50 AVE,,LANGLEY,BC,V3A3T2,,,,,,Principal,Michael,Carlyle,,6045309973,Standard,Public,6045309973,6045303819,mcarlyle@sd35.bc.ca,https://lfe.sd35.bc.ca/,,,,
035,03535066,Donna Gabriel Robins Elementary,7844 204b ST,,LANGLEY,BC,V2Y3N9,,,,,,Vice Principal,Dunja,McCrae,,7787265555,Standard,Public,7787265555,7787059019,nerker@sd35.bc.ca,,,,,
035,03596616,Murrayville Academy,21488 OLD YALE ROAD,,LANGLEY,BC,V3A4M8,,,,,,Principal,Kim,Nichols,,6045325667,Standard,Independent,6045325667,,operations@murrayvilleacademy.ca,,01,01,01,
035,03596573,Aldergrove Christian Academy,26245 28TH AVE,,ALDERGROVE,BC,V4W2W3,,,,,,Principal,Justin,Poehlke,,6048562577,Standard,Independent,6048562577,6048570088,academy@rosbc.com,,03,03,03,03
035,03535053,Dorothy Peacock Elementary,20292 91A AVE,,LANGLEY,BC,V1M2G2,,,,,,,Lori,Lipp,,6045138000,Standard,Public,6045138000,6045138008,kcline@sd35.bc.ca,,,,,
035,03535057,H D Stafford Middle,20441 GRADE CRES,,LANGLEY,BC,V3A4J8,,,,,,Principal,John,Hantke,,6045349285,Standard,Public,6045349285,6045348986,jhantke@sd35.bc.ca,,,,,
035,03535058,Betty Gilbert Middle,26845 27 AVE,,ALDERGROVE,BC,V4W3E6,,,,,,Vice Principal,Mindy,Guthrie,,6048568178,Standard,Public,6048568178,6048567831,cburns@sd35.bc.ca,,,,,
035,03599202,Focus Alternate,21405 56 AVE,,LANGLEY,BC,V2Y2N1,,,,,,Principal,Diane,Smillie,,6045344171,Alternate Programs,Public,6045344171,6045349518,lssstudentrecords@sd35.bc.ca,https://lss.sd35.bc.ca/,,,,
035,03525105,West Langley AM StrongStart Centre,9403 212 ST,,LANGLEY,BC,V1M1M1,,,,,,,Nicole,Rinke,,6048886444,StrongStart Center,Early Learning,6048886444,,clambiepottersmith@sd35.bc.ca,,,,,
035,03525104,Langley Meadows AM StrongStart Centre,2244 WILLOUGHBY WAY,,LANGLEY,BC,V2Y1C1,,,,,,Administrative Assistant,Candace,Herrod,,6045304101,StrongStart Center,Early Learning,6045304101,,rkrisko@sd35.bc.ca,,,,,
035,03525107,Douglas Park StrongStart Centre,5409 206 ST,,LANGLEY,BC,V3A2C5,,,,,,,Kim,Langford,,6045334491,StrongStart Center,Early Learning,6045334491,,mtouzeau@sd35.bc.ca,,,,,
035,03525229,Parkside Centennial PM StrongStart,3300 270 Street,,ALDERGROVE,BC,V4W3H2,,,,,,,Vicki,Kidd,,6048567775,StrongStart Center,Early Learning,6048567775,,dwilk@sd35.bc.ca,,,,,
035,03525230,Donna Gabriel Robins StrongStart Centre,7844 204 ST,,LANGLEY,BC,V2Y1X4,,,,,,Principal,Phillis,Giovani,,,StrongStart Center,Early Learning,6045300251,,pgiovani@sd35.bc.ca,,,,,
035,03535063,Yorkson Creek Middle School,20686 84 AVE,,LANGLEY,BC,V2Y2B5,,,,,,Principal,Stephanie,Labby,,,Standard,Public,6048888065,6048888069,slabby@sd35.bc.ca,,,,,
035,03535064,Langley Equestrian Academy,20902 37A AVE,,LANGLEY,BC,V3A5N2,,,,,,Vice Principal,Kendall,Sewell,,6045302141,Standard,Public,6045302141,6045305132,LEllis@sd35.bc.ca,,,,,
035,03535065,Peter Ewart Middle School,7755 202A ST,,LANGLEY,BC,V2Y1W4,,,,,,,Jody,Lively,,,Standard,Public,7787264815,,cjackson@sd35.bc.ca,,,,,
035,03596376,The King's School,PO BOX 28 STN MILNER,,LANGLEY,BC,V2Y0W9,21783 76B AVE,,LANGLEY,BC,V2Y2S5,,Kathy,Martins,,,Standard,Independent,6048880969,6048880977,school@tkc.com,,01,01,01,01
035,03596926,Khalsa School of the Fraser Valley,26345 62 AVE,,LANGLEY,BC,V4W1L8,,,,,,Principal,Japnaam,Malik,,,Standard,Independent,6048561177,6048561197,japnaamsingh@khalsaschool.ca,,01,01,01,
035,03599201,Advance Alternate,26850 29 AVE,,ALDERGROVE,BC,V4W3C1,,,,,,Principal,Mike,Palichuk,,,Alternate Programs,Public,6048562521,6048569648,ACSFacilitator@sd35.bc.ca,,,,,
035,03535034,D.W. Poppy Secondary,23752 52 AVE,,LANGLEY,BC,V2Z2P3,,,,,,Vice-Principal,Kurt,Reynaud,,6045302151,Standard,Public,6045302151,6045305034,jharris@sd35.bc.ca,https://dwps.sd35.bc.ca/,,,,
035,03535040,James Kennedy Elementary,9060 212 ST,,LANGLEY,BC,V1M2B7,,,,,,,Shari,Sollows,,6048885257,Standard,Public,6048885257,6048884324,cgracie@sd35.bc.ca,https://jke.sd35.bc.ca/,,,,
035,03596607,Dogwood School,23328 44 AVE,,LANGLEY,BC,V2Z2V2,,,,,,,Karina,Logan,,6045335529,Standard,Independent,6045335529,6048515933,mark.sullivan@na.oneschoolglobal.com,,,,,
035,03596012,COMPASS Christian Langley (Glover Rd.),6866 Glover Rd,,Langley,BC,V2Y0W9,,,,,,,Tracee,Horvath,,6044270963,Standard,Independent,6044270963,,info@compassclc.com,,,,,
035,03596016,Riverside Christian Academy,8-20178 96 Ave,,Langley,BC,V1H0B2,,,,,,,Kelly,Koch,,6045399673,Standard,Independent,6045399673,,rca@riversidecalvary.com,,,,,
035,03525228,Langley Meadows PM StrongStart Centre,2244 WILLOUGHBY WAY,,LANGLEY,BC,V2Y1C1,,,,,,Administrative Assistant,Candace,Herrod,,6045304101,StrongStart Center,Early Learning,6045304101,,rkrisko@sd35.bc.ca,,,,,
035,03535051,James Hill Elementary,22144 OLD YALE RD,,LANGLEY,BC,V2Z1B5,,,,,,Principal,Lynn,Fairley,2,6045300251,Standard,Public,6045300251,6045300217,lfairley@sd35.bc.ca,,,,,
035,03535041,R E Mountain Secondary,7633 202A ST,,LANGLEY,BC,V2Y1W4,,,,,,Vice Principal,Tina,Costopoulos,,6048883033,Standard,Public,6048883033,6048882873,ptrattle@sd35.bc.ca,https://remss.sd35.bc.ca,,,,
035,03525106,Simonds StrongStart Centre,20190 48 AVE,,LANGLEY,BC,V3A3L4,,,,,,,Cathy,Beukers,,6045302361,StrongStart Center,Early Learning,6045302361,,rstare@sd35.bc.ca,https://simonds-uconnect.sd35.bc.ca/,,,,
035,03596003,SKY Secondary School,20317 67 Ave,,Langley,BC,V2Y1P6,,,,,,Principal,Lena,Kim,,7789979114,Standard,Independent,7789979114,,info@skysecondary.ca,https://www.skysecondary.ca,,,,